start=new Date('2022-04-14T00:00:00.000Z').valueOf();
sats=[{"ELEMENT_SET_NO":"999","MEAN_ELEMENT_THEORY":"SGP4","MEAN_MOTION":"15.06405241","FILE":"3400454","ARG_OF_PERICENTER":"50.7902","OBJECT_ID":"2020-006AF","PERIOD":"95.592","PERIAPSIS":"545.978","SEMIMAJOR_AXIS":"6925.332","TLE_LINE1":"1 45073U 20006AF  22103.75879027  .00001742  00000-0  13579-3 0  9992","MEAN_MOTION_DOT":"0.00001742","MEAN_ANOMALY":"309.3243","OBJECT_NAME":"STARLINK-1170","REV_AT_EPOCH":"12181","COUNTRY_CODE":"US","OBJECT_TYPE":"PAYLOAD","NORAD_CAT_ID":"45073","TIME_SYSTEM":"UTC","RA_OF_ASC_NODE":"187.8615","RCS_SIZE":"LARGE","GP_ID":"201173697","APOAPSIS":"548.417","CLASSIFICATION_TYPE":"U","MEAN_MOTION_DDOT":"0.0000000000000","LAUNCH_DATE":"2020-01-29","SITE":"AFETR","EPOCH":"2022-04-13T18:12:39.479328","INCLINATION":"53.0541","EPHEMERIS_TYPE":"0","CENTER_NAME":"EARTH","TLE_LINE2":"2 45073  53.0541 187.8615 0001761  50.7902 309.3243 15.06405241121818","BSTAR":"0.00013579000000","REF_FRAME":"TEME","DECAY_DATE":null,"ECCENTRICITY":"0.00017610"},{"REF_FRAME":"TEME","ECCENTRICITY":"0.00015350","DECAY_DATE":null,"EPHEMERIS_TYPE":"0","CENTER_NAME":"EARTH","TLE_LINE2":"2 45074  53.0529 187.9460 0001535  63.1834 296.9312 15.06399972121816","BSTAR":"0.00022370000000","LAUNCH_DATE":"2020-01-29","SITE":"AFETR","EPOCH":"2022-04-13T17:51:26.163648","CLASSIFICATION_TYPE":"U","MEAN_MOTION_DDOT":"0.0000000000000","INCLINATION":"53.0529","COUNTRY_CODE":"US","REV_AT_EPOCH":"12181","RCS_SIZE":"LARGE","GP_ID":"201172445","APOAPSIS":"548.277","OBJECT_TYPE":"PAYLOAD","NORAD_CAT_ID":"45074","TIME_SYSTEM":"UTC","RA_OF_ASC_NODE":"187.9460","FILE":"3400454","OBJECT_ID":"2020-006AG","ARG_OF_PERICENTER":"63.1834","PERIOD":"95.592","PERIAPSIS":"546.151","SEMIMAJOR_AXIS":"6925.349","ELEMENT_SET_NO":"999","MEAN_ELEMENT_THEORY":"SGP4","MEAN_MOTION":"15.06399972","MEAN_MOTION_DOT":"0.00003052","MEAN_ANOMALY":"296.9312","OBJECT_NAME":"STARLINK-1172","TLE_LINE1":"1 45074U 20006AG  22103.74405282  .00003052  00000-0  22370-3 0  9995"},{"MEAN_ANOMALY":"290.4087","OBJECT_NAME":"STARLINK-1174","MEAN_MOTION_DOT":"0.00001976","TLE_LINE1":"1 45075U 20006AH  22103.71087157  .00001976  00000-0  15151-3 0  9992","FILE":"3400454","PERIOD":"95.592","PERIAPSIS":"546.086","SEMIMAJOR_AXIS":"6925.338","ARG_OF_PERICENTER":"69.7076","OBJECT_ID":"2020-006AH","ELEMENT_SET_NO":"999","MEAN_MOTION":"15.06403286","MEAN_ELEMENT_THEORY":"SGP4","GP_ID":"201172695","RCS_SIZE":"LARGE","APOAPSIS":"548.321","NORAD_CAT_ID":"45075","OBJECT_TYPE":"PAYLOAD","TIME_SYSTEM":"UTC","RA_OF_ASC_NODE":"188.0820","COUNTRY_CODE":"US","REV_AT_EPOCH":"12181","INCLINATION":"53.0534","SITE":"AFETR","LAUNCH_DATE":"2020-01-29","EPOCH":"2022-04-13T17:03:39.303648","CLASSIFICATION_TYPE":"U","MEAN_MOTION_DDOT":"0.0000000000000","REF_FRAME":"TEME","DECAY_DATE":null,"ECCENTRICITY":"0.00016130","CENTER_NAME":"EARTH","EPHEMERIS_TYPE":"0","TLE_LINE2":"2 45075  53.0534 188.0820 0001613  69.7076 290.4087 15.06403286121814","BSTAR":"0.00015151000000"},{"REV_AT_EPOCH":"12181","COUNTRY_CODE":"US","TIME_SYSTEM":"UTC","RA_OF_ASC_NODE":"188.0518","NORAD_CAT_ID":"45076","OBJECT_TYPE":"PAYLOAD","APOAPSIS":"548.279","GP_ID":"201172946","RCS_SIZE":"LARGE","MEAN_MOTION":"15.06413077","MEAN_ELEMENT_THEORY":"SGP4","ELEMENT_SET_NO":"999","PERIAPSIS":"546.068","SEMIMAJOR_AXIS":"6925.308","PERIOD":"95.591","ARG_OF_PERICENTER":"60.2853","OBJECT_ID":"2020-006AJ","FILE":"3400454","TLE_LINE1":"1 45076U 20006AJ  22103.71824859  .00010616  00000-0  73024-3 0  9995","OBJECT_NAME":"STARLINK-1180","MEAN_ANOMALY":"299.8295","MEAN_MOTION_DOT":"0.00010616","BSTAR":"0.00073024000000","TLE_LINE2":"2 45076  53.0536 188.0518 0001596  60.2853 299.8295 15.06413077121813","CENTER_NAME":"EARTH","EPHEMERIS_TYPE":"0","ECCENTRICITY":"0.00015960","DECAY_DATE":null,"REF_FRAME":"TEME","MEAN_MOTION_DDOT":"0.0000000000000","CLASSIFICATION_TYPE":"U","EPOCH":"2022-04-13T17:14:16.678176","SITE":"AFETR","LAUNCH_DATE":"2020-01-29","INCLINATION":"53.0536"},{"PERIAPSIS":"545.907","SEMIMAJOR_AXIS":"6925.259","PERIOD":"95.590","ARG_OF_PERICENTER":"40.2849","OBJECT_ID":"2020-006AL","FILE":"3400454","MEAN_MOTION":"15.06429228","MEAN_ELEMENT_THEORY":"SGP4","ELEMENT_SET_NO":"999","OBJECT_NAME":"STARLINK-1177","MEAN_ANOMALY":"319.8270","MEAN_MOTION_DOT":"0.00019570","TLE_LINE1":"1 45078U 20006AL  22103.67033882  .00019570  00000-0  13280-2 0  9995","COUNTRY_CODE":"US","REV_AT_EPOCH":"12179","APOAPSIS":"548.341","GP_ID":"201173197","RCS_SIZE":"LARGE","RA_OF_ASC_NODE":"188.2809","TIME_SYSTEM":"UTC","NORAD_CAT_ID":"45078","OBJECT_TYPE":"PAYLOAD","EPOCH":"2022-04-13T16:05:17.274048","SITE":"AFETR","LAUNCH_DATE":"2020-01-29","MEAN_MOTION_DDOT":"0.0000000000000","CLASSIFICATION_TYPE":"U","INCLINATION":"53.0534","DECAY_DATE":null,"ECCENTRICITY":"0.00017580","REF_FRAME":"TEME","TLE_LINE2":"2 45078  53.0534 188.2809 0001758  40.2849 319.8270 15.06429228121799","BSTAR":"0.00132800000000","CENTER_NAME":"EARTH","EPHEMERIS_TYPE":"0"},{"APOAPSIS":"548.107","RCS_SIZE":"LARGE","GP_ID":"201171945","RA_OF_ASC_NODE":"188.6565","TIME_SYSTEM":"UTC","OBJECT_TYPE":"PAYLOAD","NORAD_CAT_ID":"45079","COUNTRY_CODE":"US","REV_AT_EPOCH":"12178","MEAN_MOTION_DOT":"0.00021881","OBJECT_NAME":"STARLINK-1149","MEAN_ANOMALY":"286.0768","TLE_LINE1":"1 45079U 20006AM  22103.58188228  .00021881  00000-0  14828-2 0  9998","OBJECT_ID":"2020-006AM","ARG_OF_PERICENTER":"74.0369","PERIAPSIS":"546.243","PERIOD":"95.591","SEMIMAJOR_AXIS":"6925.310","FILE":"3400454","MEAN_ELEMENT_THEORY":"SGP4","MEAN_MOTION":"15.06412577","ELEMENT_SET_NO":"999","DECAY_DATE":null,"ECCENTRICITY":"0.00013460","REF_FRAME":"TEME","TLE_LINE2":"2 45079  53.0530 188.6565 0001346  74.0369 286.0768 15.06412577121789","BSTAR":"0.00148280000000","EPHEMERIS_TYPE":"0","CENTER_NAME":"EARTH","INCLINATION":"53.0530","EPOCH":"2022-04-13T13:57:54.628992","LAUNCH_DATE":"2020-01-29","SITE":"AFETR","MEAN_MOTION_DDOT":"0.0000000000000","CLASSIFICATION_TYPE":"U"},{"INCLINATION":"53.0537","CLASSIFICATION_TYPE":"U","MEAN_MOTION_DDOT":"0.0000000000000","LAUNCH_DATE":"2020-01-29","SITE":"AFETR","EPOCH":"2022-04-13T17:19:35.226336","EPHEMERIS_TYPE":"0","CENTER_NAME":"EARTH","BSTAR":"0.00168650000000","TLE_LINE2":"2 45080  53.0537 188.0340 0001862  44.8421 315.2718 15.06429521121811","REF_FRAME":"TEME","ECCENTRICITY":"0.00018620","DECAY_DATE":null,"TLE_LINE1":"1 45080U 20006AN  22103.72193549  .00024948  00000-0  16865-2 0  9998","MEAN_MOTION_DOT":"0.00024948","MEAN_ANOMALY":"315.2718","OBJECT_NAME":"STARLINK-1153","ELEMENT_SET_NO":"999","MEAN_ELEMENT_THEORY":"SGP4","MEAN_MOTION":"15.06429521","FILE":"3400454","ARG_OF_PERICENTER":"44.8421","OBJECT_ID":"2020-006AN","SEMIMAJOR_AXIS":"6925.258","PERIAPSIS":"545.834","PERIOD":"95.590","OBJECT_TYPE":"PAYLOAD","NORAD_CAT_ID":"45080","TIME_SYSTEM":"UTC","RA_OF_ASC_NODE":"188.0340","RCS_SIZE":"LARGE","GP_ID":"201172195","APOAPSIS":"548.413","REV_AT_EPOCH":"12181","COUNTRY_CODE":"US"},{"INCLINATION":"53.0526","LAUNCH_DATE":"2020-01-29","SITE":"AFETR","EPOCH":"2022-04-13T16:47:44.738304","CLASSIFICATION_TYPE":"U","MEAN_MOTION_DDOT":"0.0000000000000","REF_FRAME":"TEME","DECAY_DATE":null,"ECCENTRICITY":"0.00016280","EPHEMERIS_TYPE":"0","CENTER_NAME":"EARTH","BSTAR":"0.00038740000000","TLE_LINE2":"2 45081  53.0526 188.1448 0001628  57.3742 302.7403 15.06405390121815","MEAN_MOTION_DOT":"0.00005494","MEAN_ANOMALY":"302.7403","OBJECT_NAME":"STARLINK-1151","TLE_LINE1":"1 45081U 20006AP  22103.69982336  .00005494  00000-0  38740-3 0  9997","FILE":"3400454","ARG_OF_PERICENTER":"57.3742","OBJECT_ID":"2020-006AP","PERIAPSIS":"546.070","SEMIMAJOR_AXIS":"6925.332","PERIOD":"95.592","ELEMENT_SET_NO":"999","MEAN_ELEMENT_THEORY":"SGP4","MEAN_MOTION":"15.06405390","RCS_SIZE":"LARGE","GP_ID":"201173447","APOAPSIS":"548.324","OBJECT_TYPE":"PAYLOAD","NORAD_CAT_ID":"45081","TIME_SYSTEM":"UTC","RA_OF_ASC_NODE":"188.1448","COUNTRY_CODE":"US","REV_AT_EPOCH":"12181"},{"MEAN_MOTION_DOT":"0.00003740","OBJECT_NAME":"STARLINK-1160","MEAN_ANOMALY":"315.5004","TLE_LINE1":"1 45082U 20006AQ  22103.75510213  .00003740  00000-0  26986-3 0  9997","ARG_OF_PERICENTER":"44.6128","OBJECT_ID":"2020-006AQ","SEMIMAJOR_AXIS":"6925.361","PERIAPSIS":"545.990","PERIOD":"95.592","FILE":"3400454","MEAN_ELEMENT_THEORY":"SGP4","MEAN_MOTION":"15.06396016","ELEMENT_SET_NO":"999","APOAPSIS":"548.462","RCS_SIZE":"LARGE","GP_ID":"201173698","RA_OF_ASC_NODE":"187.8848","TIME_SYSTEM":"UTC","OBJECT_TYPE":"PAYLOAD","NORAD_CAT_ID":"45082","COUNTRY_CODE":"US","REV_AT_EPOCH":"12181","INCLINATION":"53.0552","EPOCH":"2022-04-13T18:07:20.824032","LAUNCH_DATE":"2020-01-29","SITE":"AFETR","MEAN_MOTION_DDOT":"0.0000000000000","CLASSIFICATION_TYPE":"U","DECAY_DATE":null,"ECCENTRICITY":"0.00017850","REF_FRAME":"TEME","TLE_LINE2":"2 45082  53.0552 187.8848 0001785  44.6128 315.5004 15.06396016121819","BSTAR":"0.00026986000000","EPHEMERIS_TYPE":"0","CENTER_NAME":"EARTH"},{"MEAN_MOTION_DDOT":"0.0000000000000","CLASSIFICATION_TYPE":"U","EPOCH":"2022-04-13T15:41:24.186624","LAUNCH_DATE":"2020-01-29","SITE":"AFETR","INCLINATION":"53.0545","TLE_LINE2":"2 45083  53.0545 208.3536 0001716  56.6162 303.4990 15.06413316121521","BSTAR":"0.00129440000000","EPHEMERIS_TYPE":"0","CENTER_NAME":"EARTH","DECAY_DATE":null,"ECCENTRICITY":"0.00017160","REF_FRAME":"TEME","MEAN_ELEMENT_THEORY":"SGP4","MEAN_MOTION":"15.06413316","ELEMENT_SET_NO":"999","ARG_OF_PERICENTER":"56.6162","OBJECT_ID":"2020-006AR","SEMIMAJOR_AXIS":"6925.308","PERIAPSIS":"545.984","PERIOD":"95.591","FILE":"3400454","TLE_LINE1":"1 45083U 20006AR  22103.65375216  .00019058  00000-0  12944-2 0  9996","MEAN_MOTION_DOT":"0.00019058","OBJECT_NAME":"STARLINK-1190","MEAN_ANOMALY":"303.4990","REV_AT_EPOCH":"12152","COUNTRY_CODE":"US","TIME_SYSTEM":"UTC","RA_OF_ASC_NODE":"208.3536","OBJECT_TYPE":"PAYLOAD","NORAD_CAT_ID":"45083","APOAPSIS":"548.361","RCS_SIZE":"LARGE","GP_ID":"201172446"}];
